ONEWEB-0253             
1 48971U 21060E   26082.42411175  .00000029  00000+0  42626-4 0  9995
2 48971  87.9017 245.8261 0001817  97.3009 262.8329 13.16595874228302
ONEWEB-0254             
1 48972U 21060F   26082.43361807  .00000080  00000+0  17581-3 0  9991
2 48972  87.9021 245.8194 0002061  96.7321 263.4045 13.16594447228302
ONEWEB-0255             
1 48973U 21060G   26082.16761366 -.00000092  00000+0 -27504-3 0  9997
2 48973  87.9019 245.8811 0001938  98.3542 261.7808 13.16592301228340
ONEWEB-0256             
1 48974U 21060H   26082.42173656 -.00000008  00000+0 -53309-4 0  9996
2 48974  87.9020 245.8381 0001606 100.3745 259.7567 13.16595163228344
ONEWEB-0257             
1 48975U 21060J   26082.37820041  .00000034  00000+0  56257-4 0  9990
2 48975  87.9020 245.8305 0001840 101.4439 258.6899 13.16594817228298
ONEWEB-0258             
1 48976U 21060K   26082.45577777  .00000070  00000+0  15019-3 0  9995
2 48976  87.9020 245.8264 0001768  96.0231 264.1101 13.16597795228310
ONEWEB-0259             
1 48977U 21060L   26082.44944227  .00000067  00000+0  14202-3 0  9992
2 48977  87.9022 245.8268 0001885  97.0636 263.0709 13.16594871228344
ONEWEB-0260             
1 48978U 21060M   26082.44072220  .00000064  00000+0  13499-3 0  9992
2 48978  87.9019 245.8344 0001507 111.2553 248.8738 13.16595348228325
ONEWEB-0261             
1 48979U 21060N   26082.18264559 -.00000017  00000+0 -78777-4 0  9993
2 48979  87.9014 245.8847 0002048 104.5364 255.5994 13.16593209228340
ONEWEB-0262             
1 48980U 21060P   26082.46686240  .00000038  00000+0  65330-4 0  9993
2 48980  87.9022 245.8111 0001955  92.3716 267.7639 13.16595005228343
ONEWEB-0263             
1 48981U 21060Q   26082.42252882  .00000014  00000+0  28689-5 0  9992
2 48981  87.9019 245.8315 0002076 101.7116 258.4248 13.16593812228303
ONEWEB-0264             
1 48982U 21060R   26082.38374183  .00000000  00000+0 -34505-4 0  9996
2 48982  87.9020 245.8431 0001775 105.8266 254.3060 13.16593721228307
ONEWEB-0266             
1 48984U 21060T   26082.17710419 -.00000339  00000+0 -92018-3 0  9999
2 48984  87.9022 245.8735 0001716  95.4761 264.6565 13.16594252228266
ONEWEB-0267             
1 48985U 21060U   26082.18820766 -.00000087  00000+0 -26002-3 0  9998
2 48985  87.9017 245.8677 0001889 102.7779 257.3563 13.16593505228276
ONEWEB-0268             
1 48986U 21060V   26082.38453351 -.00000013  00000+0 -67395-4 0  9993
2 48986  87.9019 245.8383 0001692 100.3083 259.8239 13.16594856228566
ONEWEB-0269             
1 48987U 21060W   26082.36553188  .00000098  00000+0  22397-3 0  9994
2 48987  87.9010 245.8546 0001497  99.3208 260.8092 13.16595071228332
ONEWEB-0270             
1 48988U 21060X   26082.38295111  .00000017  00000+0  98104-5 0  9998
2 48988  87.9018 245.8404 0002144  97.6806 262.4568 13.16594812228371
ONEWEB-0271             
1 48989U 21060Y   26082.44626606  .00000090  00000+0  20277-3 0  9998
2 48989  87.9022 245.8189 0001991 101.3886 258.7468 13.16592811228382
ONEWEB-0272             
1 48990U 21060Z   26082.16446116 -.00000049  00000+0 -16119-3 0  9991
2 48990  87.9018 245.8861 0001728 108.1901 251.9418 13.16595300228293
ONEWEB-0273             
1 48991U 21060AA  26082.18662598 -.00000048  00000+0 -16000-3 0  9996
2 48991  87.9019 245.8799 0001894  98.7459 261.3886 13.16593761228272
ONEWEB-0274             
1 48992U 21060AB  26082.43994907  .00000090  00000+0  20247-3 0  9990
2 48992  87.9006 245.8413 0001639 109.6084 250.5224 13.16594682228342
ONEWEB-0275             
1 48993U 21060AC  26082.42886494  .00000024  00000+0  28170-4 0  9992
2 48993  87.9016 245.8240 0001745 101.2951 258.8376 13.16593903228277
ONEWEB-0276             
1 48994U 21060AD  26082.15812475  .00000063  00000+0  13148-3 0  9992
2 48994  87.9021 245.8782 0001849  94.0515 266.0828 13.16595361228256
ONEWEB-0277             
1 48995U 21060AE  26082.17077339 -.00000282  00000+0 -77203-3 0  9994
2 48995  87.9007 245.8897 0001890  99.4729 260.6616 13.16593500228247
ONEWEB-0278             
1 48996U 21060AF  26082.16128396 -.00000013  00000+0 -66499-4 0  9992
2 48996  87.9023 245.8748 0001631  90.2589 269.8728 13.16595037228373
ONEWEB-0279             
1 48997U 21060AG  26082.16921066 -.00000088  00000+0 -26428-3 0  9997
2 48997  87.9021 245.8723 0001923 104.6409 255.4935 13.16594043228300
ONEWEB-0280             
1 48998U 21060AH  26082.18424825 -.00000109  00000+0 -31857-3 0  9997
2 48998  87.9019 245.8741 0002022  90.6833 269.4530 13.16594381228248
ONEWEB-0281             
1 48999U 21060AJ  26082.18979231  .00000002  00000+0 -28226-4 0  9992
2 48999  87.9017 245.8673 0001627 101.5015 258.6299 13.16594144228312
ONEWEB-0282             
1 49000U 21060AK  26082.44786169  .00000133  00000+0  31425-3 0  9999
2 49000  87.9019 245.8264 0001863  97.6366 262.4977 13.16594620228326
ONEWEB-0283             
1 49001U 21060AL  26082.43677907  .00000078  00000+0  17099-3 0  9997
2 49001  87.9018 245.8284 0001866 101.9126 258.2214 13.16594636228339
ONEWEB-0284             
1 49002U 21060AM  26082.43045295  .00000035  00000+0  58239-4 0  9992
2 49002  87.9020 245.8213 0001866  87.8744 272.2601 13.16594240228318
JILIN-1 KUANFU-01B      
1 49003U 21061A   26082.54377670  .00005690  00000+0  35820-3 0  9993
2 49003  97.5251 160.3165 0008017  16.1580 343.9903 15.09550260260424
JILIN-1 GAOFEN 3D03     
1 49006U 21061D   26082.46379873  .00291855  00000+0  11348-2 0  9992
2 49006  97.2987 160.3423 0001742 225.9242 134.1885 15.86397561262722
XINGSHIDAI 10           
1 49007U 21061E   26082.38349044  .00238818  00000+0  11017-2 0  9994
2 49007  97.2978 159.8664 0001653 232.1745 127.9375 15.82918477262682
FENGYUN 3E              
1 49008U 21062A   26082.51366204 -.00000079  00000+0 -16306-4 0  9994
2 49008  98.7516  86.8733 0001673  16.8994 343.2238 14.19895075244428
TIANLIAN 1-05           
1 49011U 21063A   26080.70266517  .00000110  00000+0  00000+0 0  9997
2 49011   1.3669  81.3853 0004011 236.3401 131.1954  1.00271871 17206
NINGXIA-1 6             
1 49018U 21064A   26082.52107631 -.00000003  00000+0  74527-4 0  9990
2 49018  44.9993 254.1113 0008014 182.8087 177.2705 14.08521186242133
NINGXIA-1 7             
1 49019U 21064B   26082.50797926 -.00000174  00000+0 -24267-4 0  9997
2 49019  45.0020 254.3989 0006958 192.3502 167.7165 14.08536302242166
NINGXIA-1 8             
1 49020U 21064C   26082.49413921 -.00000206  00000+0 -43000-4 0  9999
2 49020  44.9939 253.2149 0007858 198.1445 161.9112 14.08523082242148
NINGXIA-1 9             
1 49021U 21064D   26082.55054263 -.00000053  00000+0  45380-4 0  9999
2 49021  45.0018 253.8695 0008849 206.8914 153.1464 14.08546498242150
NINGXIA-1 10            
1 49022U 21064E   26082.53643013  .00000152  00000+0  16400-3 0  9994
2 49022  44.9990 253.4035 0008265 212.7738 147.2587 14.08541243242157
YAOGAN-30 11A           
1 49026U 21065A   26082.40222932  .00003661  00000+0  27439-3 0  9990
2 49026  34.9931  75.7888 0004036 133.8677 226.2365 15.02194796255735
TIANQI-15               
1 49027U 21065B   26082.50167384  .00005982  00000+0  36511-3 0  9990
2 49027  34.9998  23.9064 0005900   0.1659 359.9052 15.09672658256314
YAOGAN-30 11B           
1 49028U 21065C   26082.44647649  .00004084  00000+0  30565-3 0  9996
2 49028  34.9933  75.2187 0000857 279.2575  80.8036 15.02221125255720
YAOGAN-30 11C           
1 49029U 21065D   26082.42485535  .00004046  00000+0  30270-3 0  9990
2 49029  34.9943  75.1895 0004666 244.7274 115.2950 15.02232234255756
ISS (NAUKA)             
1 49044U 21066A   26082.45371250  .00014788  00000+0  28089-3 0  9998
2 49044  51.6345   4.3184 0006177 224.0290 136.0206 15.48489537558276
TIANHUI 1-04            
1 49049U 21067A   26079.78853755  .00000230  00000+0  12505-4 0  9995
2 49049  97.2845 150.5220 0001220 162.5574 197.5705 15.23466509258137
MONOLITH                
1 49052U 21068A   26082.11823208  .00007392  00000+0  47357-3 0  9999
2 49052  37.0230  60.0100 0004656 238.0238 122.0055 15.08180283254272
STAR ONE D2             
1 49055U 21069A   26082.34419895  .00000000  00000+0  00000+0 0  9990
2 49055   0.0259 173.9751 0000975 191.4766 229.2198  1.00270360 17076
EUTELSAT QUANTUM        
1 49056U 21069B   26082.49144647  .00000123  00000+0  00000+0 0  9993
2 49056   0.0162  92.8211 0002280 263.1629  49.5922  1.00270543 17066
KL-BETA A               
1 49059U 21070A   26082.53259313  .00000097  00000+0  62474-4 0  9998
2 49059  88.9995 227.8260 0001248  54.5698 305.5594 13.94376791235995
KL-BETA B               
1 49060U 21070B   26082.49566786  .00000116  00000+0  76528-4 0  9997
2 49060  88.9995 227.7498 0006283  45.1379 315.0307 13.94704377236023
ZHONGXING-2E            
1 49062U 21071A   26082.50141318 -.00000295  00000+0  00000+0 0  9998
2 49062   0.0469 345.5569 0001171 161.8356 312.1582  1.00272251 17188
PLEIADES NEO 4          
1 49070U 21073E   26081.17002016  .00000610  00000+0  84137-4 0  9990
2 49070  97.8932 157.1810 0001311  93.7442 266.3921 14.81675464248489
TIANHUI 2-02A           
1 49071U 21074A   26081.50798788  .00002045  00000+0  10761-3 0  9992
2 49071  97.4828  85.8729 0001584  96.5908 263.5505 15.16761800254131
TIANHUI 2-02B           
1 49072U 21074B   26081.50798848  .00002085  00000+0  10964-3 0  9999
2 49072  97.4828  85.8686 0001848  80.4647 279.6795 15.16761961254136
ONEWEB-0285             
1 49075U 21075A   26082.52216498 -.00000148  00000+0 -44776-3 0  9990
2 49075  87.9015   7.6667 0001867  78.6236 281.5102 13.12444554223978
ONEWEB-0286             
1 49076U 21075B   26082.50423463 -.00000355  00000+0 -10218-2 0  9994
2 49076  87.9008   7.6955 0001607  75.2151 284.9156 13.12443873223320
ONEWEB-0287             
1 49077U 21075C   26082.35878984  .00000039  00000+0  66224-4 0  9997
2 49077  87.9169  22.9095 0001566  67.5959 292.5338 13.17649333222328
